{
  "type": "FeatureCollection",
  "features": [
    {
      "type": "Feature",
      "properties": {
        "dt_code": "585",
        "district": "North Goa",
        "st_code": "30",
        "year": "2011_c",
        "st_nm": "Goa"
      },
      "geometry": {
        "type": "Polygon",
        "coordinates": [
          [
            [
              74.25109996927175,
              15.491442712180286
            ],
            [
              74.19967166478774,
              15.46637632957747
            ],
            [
              74.1788959921154,
              15.43713221654085
            ],
            [
              74.12406183965233,
              15.437828504946483
            ],
            [
              74.10975727814021,
              15.41902871799437
            ],
            [
              74.10362675177788,
              15.427384178861976
            ],
            [
              74.06854651759343,
              15.411369545532398
            ],
            [
              74.05594488007085,
              15.406843670895778
            ],
            [
              74.05560429527294,
              15.407539959301413
            ],
            [
              74.0535607864855,
              15.434347062918315
            ],
            [
              74.03448803780269,
              15.446532110016905
            ],
            [
              74.04095914896293,
              15.451406128856343
            ],
            [
              74.0256328330571,
              15.473687357836624
            ],
            [
              74.03074160502571,
              15.478909520878878
            ],
            [
              73.96160289105053,
              15.539834756371835
            ],
            [
              73.94423306635726,
              15.524168267245075
            ],
            [
              73.96160289105053,
              15.502931470873245
            ],
            [
              73.96160289105053,
              15.502583326670427
            ],
            [
              73.95479119509238,
              15.486916837543667
            ],
            [
              73.95036359271958,
              15.47751694406761
            ],
            [
              73.95683470387982,
              15.464287464360568
            ],
            [
              73.95717528867773,
              15.463591175954933
            ],
            [
              73.94559540554889,
              15.448272831030991
            ],
            [
              73.93401552242003,
              15.432954486107047
            ],
            [
              73.90404406020419,
              15.417636141183102
            ],
            [
              73.88054370914858,
              15.435043351323948
            ],
            [
              73.8631738844553,
              15.429124899876062
            ],
            [
              73.84920990774111,
              15.452450561464794
            ],
            [
              73.80289037522572,
              15.450361696247892
            ],
            [
              73.78790464411779,
              15.46393932015775
            ],
            [
              73.8025497904278,
              15.461502310738032
            ],
            [
              73.81481084315247,
              15.491790856383103
            ],
            [
              73.79165107689477,
              15.500494461453526
            ],
            [
              73.76610721705171,
              15.494576010005638
            ],
            [
              73.75520850351869,
              15.546449496225357
            ],
            [
              73.73204873726098,
              15.590663809983104
            ],
            [
              73.7374980940275,
              15.617122769397188
            ],
            [
              73.72285294771748,
              15.630700393307048
            ],
            [
              73.69015680711838,
              15.722262318647893
            ],
            [
              73.676874,
              15.729225202704232
            ],
            [
              73.68436686555395,
              15.727832625892963
            ],
            [
              73.69424382469327,
              15.72261046285071
            ],
            [
              73.728302304484,
              15.719825309228176
            ],
            [
              73.74260686599611,
              15.735491798354936
            ],
            [
              73.78517996573453,
              15.725395616473245
            ],
            [
              73.78552055053244,
              15.725395616473245
            ],
            [
              73.78586113533035,
              15.72609190487888
            ],
            [
              73.80186862083198,
              15.737580663571837
            ],
            [
              73.82060078471689,
              15.740365817194373
            ],
            [
              73.82366604789806,
              15.740713961397189
            ],
            [
              73.82468780229178,
              15.741062105600006
            ],
            [
              73.8253689718876,
              15.744195403425358
            ],
            [
              73.84137645738925,
              15.773091372259161
            ],
            [
              73.85159400132646,
              15.780750544721133
            ],
            [
              73.85465926450762,
              15.797461466456344
            ],
            [
              73.85602160369925,
              15.799898475876063
            ],
            [
              73.85738394289088,
              15.799550331673245
            ],
            [
              73.87952195475486,
              15.774135804867612
            ],
            [
              73.87509435238206,
              15.75081014327888
            ],
            [
              73.93878370959074,
              15.74280282661409
            ],
            [
              73.95172593191121,
              15.716343867200006
            ],
            [
              73.94355189676143,
              15.698588512856343
            ],
            [
              73.96398698463588,
              15.690929340394373
            ],
            [
              73.96739283261495,
              15.635574412146484
            ],
            [
              73.96773341741286,
              15.63035224910423
            ],
            [
              73.99089318367055,
              15.611552462152119
            ],
            [
              74.0212052306843,
              15.605982154907048
            ],
            [
              74.03108218982362,
              15.622693076642259
            ],
            [
              74.10056148859671,
              15.642537296202823
            ],
            [
              74.11316312611929,
              15.64601873823099
            ],
            [
              74.1182718980879,
              15.651937189678879
            ],
            [
              74.11929365248162,
              15.652285333881697
            ],
            [
              74.12644593323768,
              15.652633478084512
            ],
            [
              74.13564172278117,
              15.64845574765071
            ],
            [
              74.1645914306033,
              15.653677910692963
            ],
            [
              74.16731610898655,
              15.671781409239442
            ],
            [
              74.18093950090285,
              15.68222573532395
            ],
            [
              74.19081646004216,
              15.679092437498598
            ],
            [
              74.18707002726518,
              15.667603678805639
            ],
            [
              74.20409926716054,
              15.663774092574654
            ],
            [
              74.20512102155426,
              15.650892757070428
            ],
            [
              74.23645482296175,
              15.66864811141409
            ],
            [
              74.25212172366548,
              15.654374199098598
            ],
            [
              74.24428827331361,
              15.626174518670428
            ],
            [
              74.26438277639014,
              15.615382048383104
            ],
            [
              74.24531002770733,
              15.566641859988737
            ],
            [
              74.26165809800688,
              15.564901138974653
            ],
            [
              74.27800616830643,
              15.54610135202254
            ],
            [
              74.27834675310434,
              15.522775690433807
            ],
            [
              74.25109996927175,
              15.491790856383103
            ],
            [
              74.25109996927175,
              15.491442712180286
            ]
          ]
        ]
      }
    },
    {
      "type": "Feature",
      "properties": {
        "dt_code": "586",
        "district": "South Goa",
        "st_code": "30",
        "year": "2011_c",
        "st_nm": "Goa"
      },
      "geometry": {
        "type": "Polygon",
        "coordinates": [
          [
            [
              73.92618207,
              15.42251016
            ],
            [
              73.95717529,
              15.46359118
            ],
            [
              73.95036359,
              15.47751694
            ],
            [
              73.9547912,
              15.48691684
            ],
            [
              73.96160289,
              15.50258333
            ],
            [
              73.96160289,
              15.50293147
            ],
            [
              73.94423307,
              15.52416827
            ],
            [
              73.96160289,
              15.53983476
            ],
            [
              74.03074161,
              15.47890952
            ],
            [
              74.02563283,
              15.47368736
            ],
            [
              74.04095915,
              15.45140613
            ],
            [
              74.03448804,
              15.44653211
            ],
            [
              74.05356079,
              15.43434706
            ],
            [
              74.0556043,
              15.40753996
            ],
            [
              74.05594488,
              15.40684367
            ],
            [
              74.06854652,
              15.41136955
            ],
            [
              74.08368961,
              15.41828259
            ],
            [
              74.083,
              15.41765
            ],
            [
              74.0817,
              15.41685
            ],
            [
              74.07819,
              15.41543
            ],
            [
              74.0763,
              15.41455
            ],
            [
              74.07439,
              15.4138
            ],
            [
              74.07402,
              15.41374
            ],
            [
              74.07217,
              15.41255
            ],
            [
              74.07211,
              15.41243
            ],
            [
              74.07333,
              15.41153
            ],
            [
              74.07435,
              15.41066
            ],
            [
              74.07463,
              15.41023
            ],
            [
              74.07468,
              15.41001
            ],
            [
              74.07462,
              15.40945
            ],
            [
              74.07445,
              15.40916
            ],
            [
              74.07355,
              15.40797
            ],
            [
              74.07257,
              15.40651
            ],
            [
              74.07245,
              15.40622
            ],
            [
              74.07247,
              15.4053
            ],
            [
              74.07272,
              15.40449
            ],
            [
              74.07322,
              15.40399
            ],
            [
              74.07391,
              15.40229
            ],
            [
              74.07451,
              15.40163
            ],
            [
              74.07506,
              15.40131
            ],
            [
              74.07655,
              15.40102
            ],
            [
              74.0768,
              15.40082
            ],
            [
              74.07706,
              15.40016
            ],
            [
              74.0771,
              15.39982
            ],
            [
              74.07702,
              15.39957
            ],
            [
              74.07623,
              15.39833
            ],
            [
              74.07523,
              15.39581
            ],
            [
              74.07508,
              15.3947
            ],
            [
              74.07511,
              15.39366
            ],
            [
              74.07559,
              15.39286
            ],
            [
              74.07597,
              15.39241
            ],
            [
              74.07665,
              15.39228
            ],
            [
              74.07766,
              15.39231
            ],
            [
              74.07806,
              15.3926
            ],
            [
              74.08002,
              15.39636
            ],
            [
              74.0805,
              15.39674
            ],
            [
              74.08073,
              15.39676
            ],
            [
              74.08131,
              15.39591
            ],
            [
              74.08131,
              15.39524
            ],
            [
              74.0812,
              15.39455
            ],
            [
              74.08127,
              15.39424
            ],
            [
              74.08192,
              15.3935
            ],
            [
              74.08391,
              15.39188
            ],
            [
              74.08453,
              15.39076
            ],
            [
              74.08476,
              15.39062
            ],
            [
              74.08505,
              15.39056
            ],
            [
              74.08566,
              15.39069
            ],
            [
              74.08645,
              15.39143
            ],
            [
              74.08742,
              15.39216
            ],
            [
              74.08789,
              15.39234
            ],
            [
              74.08817,
              15.39232
            ],
            [
              74.08862,
              15.39207
            ],
            [
              74.08916,
              15.38987
            ],
            [
              74.08944,
              15.38822
            ],
            [
              74.08949,
              15.38655
            ],
            [
              74.08981,
              15.3843
            ],
            [
              74.09008,
              15.38314
            ],
            [
              74.09048,
              15.3822
            ],
            [
              74.09098,
              15.38138
            ],
            [
              74.09119,
              15.38118
            ],
            [
              74.09198,
              15.38106
            ],
            [
              74.09229,
              15.38114
            ],
            [
              74.09241,
              15.38136
            ],
            [
              74.09248,
              15.38188
            ],
            [
              74.09145,
              15.38347
            ],
            [
              74.09146,
              15.38375
            ],
            [
              74.09157,
              15.3839
            ],
            [
              74.09218,
              15.38401
            ],
            [
              74.09258,
              15.38398
            ],
            [
              74.09584,
              15.38312
            ],
            [
              74.09645,
              15.38261
            ],
            [
              74.09679,
              15.38136
            ],
            [
              74.09818,
              15.37957
            ],
            [
              74.09869,
              15.37879
            ],
            [
              74.09871,
              15.37847
            ],
            [
              74.09863,
              15.37817
            ],
            [
              74.09836,
              15.37794
            ],
            [
              74.09814,
              15.37781
            ],
            [
              74.09742,
              15.37777
            ],
            [
              74.09704,
              15.3779
            ],
            [
              74.09641,
              15.37837
            ],
            [
              74.09583,
              15.37906
            ],
            [
              74.09525,
              15.3792
            ],
            [
              74.09491,
              15.379
            ],
            [
              74.09396,
              15.37667
            ],
            [
              74.09325,
              15.37614
            ],
            [
              74.09319,
              15.37597
            ],
            [
              74.09322,
              15.37541
            ],
            [
              74.09352,
              15.37469
            ],
            [
              74.0938,
              15.37445
            ],
            [
              74.09402,
              15.37445
            ],
            [
              74.09447,
              15.37466
            ],
            [
              74.09554,
              15.37597
            ],
            [
              74.09637,
              15.37629
            ],
            [
              74.09665,
              15.37618
            ],
            [
              74.09702,
              15.37576
            ],
            [
              74.09752,
              15.37413
            ],
            [
              74.09779,
              15.37356
            ],
            [
              74.09842,
              15.37355
            ],
            [
              74.09909,
              15.37393
            ],
            [
              74.09978,
              15.37402
            ],
            [
              74.10046,
              15.3736
            ],
            [
              74.10083,
              15.3728
            ],
            [
              74.10081,
              15.37249
            ],
            [
              74.10104,
              15.37115
            ],
            [
              74.10126,
              15.37068
            ],
            [
              74.10205,
              15.36957
            ],
            [
              74.1022,
              15.3691
            ],
            [
              74.10221,
              15.36862
            ],
            [
              74.10181,
              15.36739
            ],
            [
              74.10172,
              15.36669
            ],
            [
              74.10181,
              15.36602
            ],
            [
              74.10212,
              15.3656
            ],
            [
              74.10355,
              15.36566
            ],
            [
              74.10413,
              15.36556
            ],
            [
              74.10443,
              15.36516
            ],
            [
              74.10459,
              15.36478
            ],
            [
              74.10442,
              15.36378
            ],
            [
              74.10422,
              15.36326
            ],
            [
              74.10407,
              15.36305
            ],
            [
              74.10307,
              15.36273
            ],
            [
              74.10232,
              15.36214
            ],
            [
              74.10202,
              15.36177
            ],
            [
              74.10157,
              15.36051
            ],
            [
              74.10156,
              15.35818
            ],
            [
              74.10229,
              15.35629
            ],
            [
              74.10258,
              15.35458
            ],
            [
              74.10229,
              15.35434
            ],
            [
              74.10202,
              15.3543
            ],
            [
              74.10065,
              15.35481
            ],
            [
              74.10022,
              15.35508
            ],
            [
              74.09965,
              15.35508
            ],
            [
              74.09941,
              15.35486
            ],
            [
              74.09929,
              15.35453
            ],
            [
              74.09924,
              15.35401
            ],
            [
              74.09927,
              15.35095
            ],
            [
              74.09972,
              15.35039
            ],
            [
              74.10097,
              15.35027
            ],
            [
              74.10234,
              15.34983
            ],
            [
              74.10308,
              15.34942
            ],
            [
              74.10356,
              15.3487
            ],
            [
              74.10376,
              15.34811
            ],
            [
              74.10371,
              15.3476
            ],
            [
              74.10357,
              15.34729
            ],
            [
              74.10338,
              15.34722
            ],
            [
              74.10206,
              15.34739
            ],
            [
              74.09949,
              15.34737
            ],
            [
              74.09891,
              15.34704
            ],
            [
              74.09836,
              15.34617
            ],
            [
              74.09753,
              15.34549
            ],
            [
              74.09708,
              15.34488
            ],
            [
              74.09679,
              15.34378
            ],
            [
              74.09666,
              15.34121
            ],
            [
              74.0962,
              15.33989
            ],
            [
              74.0958,
              15.33915
            ],
            [
              74.09579,
              15.33837
            ],
            [
              74.09546,
              15.33733
            ],
            [
              74.09423,
              15.33618
            ],
            [
              74.09223,
              15.33318
            ],
            [
              74.09097,
              15.33201
            ],
            [
              74.08942,
              15.33132
            ],
            [
              74.08703,
              15.32872
            ],
            [
              74.08564,
              15.32818
            ],
            [
              74.08405,
              15.32634
            ],
            [
              74.08356,
              15.32512
            ],
            [
              74.08342,
              15.32374
            ],
            [
              74.08426,
              15.32167
            ],
            [
              74.08489,
              15.32041
            ],
            [
              74.08591,
              15.31888
            ],
            [
              74.08669,
              15.31832
            ],
            [
              74.08778,
              15.31721
            ],
            [
              74.08779,
              15.31678
            ],
            [
              74.08749,
              15.31594
            ],
            [
              74.08742,
              15.31347
            ],
            [
              74.08717,
              15.31241
            ],
            [
              74.08723,
              15.31183
            ],
            [
              74.08775,
              15.31063
            ],
            [
              74.09152,
              15.3048
            ],
            [
              74.09158,
              15.30433
            ],
            [
              74.09147,
              15.30415
            ],
            [
              74.09085,
              15.30387
            ],
            [
              74.08933,
              15.30357
            ],
            [
              74.08906,
              15.30344
            ],
            [
              74.08882,
              15.3031
            ],
            [
              74.08836,
              15.30195
            ],
            [
              74.08825,
              15.30149
            ],
            [
              74.0883,
              15.30091
            ],
            [
              74.08852,
              15.30059
            ],
            [
              74.09013,
              15.30028
            ],
            [
              74.09054,
              15.29985
            ],
            [
              74.09106,
              15.29832
            ],
            [
              74.09209,
              15.29706
            ],
            [
              74.09392,
              15.29619
            ],
            [
              74.0958,
              15.29551
            ],
            [
              74.09758,
              15.29449
            ],
            [
              74.10101,
              15.29154
            ],
            [
              74.10191,
              15.28978
            ],
            [
              74.10214,
              15.28956
            ],
            [
              74.10426,
              15.28819
            ],
            [
              74.10469,
              15.28717
            ],
            [
              74.10468,
              15.28694
            ],
            [
              74.10427,
              15.28617
            ],
            [
              74.10434,
              15.28544
            ],
            [
              74.10485,
              15.2848
            ],
            [
              74.10545,
              15.28428
            ],
            [
              74.10573,
              15.28394
            ],
            [
              74.10581,
              15.28372
            ],
            [
              74.1058,
              15.28345
            ],
            [
              74.10524,
              15.28183
            ],
            [
              74.10504,
              15.28009
            ],
            [
              74.103,
              15.2775
            ],
            [
              74.10275,
              15.27641
            ],
            [
              74.10156,
              15.27411
            ],
            [
              74.10004,
              15.2722
            ],
            [
              74.09937,
              15.27176
            ],
            [
              74.09868,
              15.27102
            ],
            [
              74.09838,
              15.26979
            ],
            [
              74.09594,
              15.26942
            ],
            [
              74.09164,
              15.26842
            ],
            [
              74.09127,
              15.26838
            ],
            [
              74.09101,
              15.26851
            ],
            [
              74.09007,
              15.26987
            ],
            [
              74.08928,
              15.27146
            ],
            [
              74.08842,
              15.27254
            ],
            [
              74.08751,
              15.27353
            ],
            [
              74.08599,
              15.27483
            ],
            [
              74.08395,
              15.27736
            ],
            [
              74.08315,
              15.27784
            ],
            [
              74.08228,
              15.27778
            ],
            [
              74.08138,
              15.27756
            ],
            [
              74.08055,
              15.27722
            ],
            [
              74.07819,
              15.27547
            ],
            [
              74.07711,
              15.27477
            ],
            [
              74.07632,
              15.27454
            ],
            [
              74.07561,
              15.27461
            ],
            [
              74.07471,
              15.27529
            ],
            [
              74.07389,
              15.2765
            ],
            [
              74.07314,
              15.27479
            ],
            [
              74.07127,
              15.27338
            ],
            [
              74.07059,
              15.27249
            ],
            [
              74.06998,
              15.27024
            ],
            [
              74.06949,
              15.26893
            ],
            [
              74.06902,
              15.2684
            ],
            [
              74.06777,
              15.26791
            ],
            [
              74.0657,
              15.26784
            ],
            [
              74.06381,
              15.268
            ],
            [
              74.06226,
              15.26836
            ],
            [
              74.06192,
              15.26813
            ],
            [
              74.06175,
              15.26734
            ],
            [
              74.0619,
              15.26669
            ],
            [
              74.06272,
              15.26486
            ],
            [
              74.06345,
              15.26289
            ],
            [
              74.06344,
              15.26228
            ],
            [
              74.06327,
              15.26168
            ],
            [
              74.06286,
              15.26111
            ],
            [
              74.06256,
              15.26089
            ],
            [
              74.06219,
              15.26076
            ],
            [
              74.06158,
              15.26084
            ],
            [
              74.05973,
              15.26165
            ],
            [
              74.05919,
              15.2616
            ],
            [
              74.05849,
              15.26096
            ],
            [
              74.05791,
              15.25988
            ],
            [
              74.05747,
              15.25747
            ],
            [
              74.05733,
              15.25609
            ],
            [
              74.05743,
              15.25543
            ],
            [
              74.0576,
              15.255
            ],
            [
              74.05754,
              15.25471
            ],
            [
              74.05738,
              15.25451
            ],
            [
              74.05704,
              15.25429
            ],
            [
              74.05619,
              15.25417
            ],
            [
              74.05525,
              15.25436
            ],
            [
              74.05376,
              15.25489
            ],
            [
              74.05261,
              15.2549
            ],
            [
              74.05204,
              15.25482
            ],
            [
              74.05106,
              15.25416
            ],
            [
              74.04753,
              15.24965
            ],
            [
              74.04652,
              15.24896
            ],
            [
              74.04577,
              15.2486
            ],
            [
              74.0441,
              15.24839
            ],
            [
              74.04365,
              15.24794
            ],
            [
              74.0436,
              15.24763
            ],
            [
              74.04371,
              15.24731
            ],
            [
              74.04413,
              15.24669
            ],
            [
              74.04541,
              15.24584
            ],
            [
              74.04561,
              15.24554
            ],
            [
              74.04615,
              15.24265
            ],
            [
              74.04646,
              15.24162
            ],
            [
              74.04668,
              15.23989
            ],
            [
              74.04668,
              15.23871
            ],
            [
              74.04646,
              15.23704
            ],
            [
              74.04588,
              15.23488
            ],
            [
              74.04562,
              15.23345
            ],
            [
              74.04556,
              15.2324
            ],
            [
              74.04563,
              15.23161
            ],
            [
              74.04581,
              15.23131
            ],
            [
              74.04725,
              15.23046
            ],
            [
              74.04973,
              15.2293
            ],
            [
              74.05175,
              15.22858
            ],
            [
              74.05286,
              15.22807
            ],
            [
              74.05479,
              15.22673
            ],
            [
              74.05582,
              15.2262
            ],
            [
              74.05603,
              15.22617
            ],
            [
              74.05679,
              15.22652
            ],
            [
              74.05792,
              15.22756
            ],
            [
              74.05854,
              15.22827
            ],
            [
              74.05905,
              15.22848
            ],
            [
              74.05987,
              15.22849
            ],
            [
              74.0607,
              15.2283
            ],
            [
              74.06189,
              15.22736
            ],
            [
              74.06282,
              15.22571
            ],
            [
              74.06329,
              15.22451
            ],
            [
              74.06297,
              15.22287
            ],
            [
              74.0624,
              15.22212
            ],
            [
              74.06125,
              15.22162
            ],
            [
              74.06,
              15.22073
            ],
            [
              74.05592,
              15.21735
            ],
            [
              74.05536,
              15.21706
            ],
            [
              74.05454,
              15.21711
            ],
            [
              74.05342,
              15.2165
            ],
            [
              74.05141,
              15.21621
            ],
            [
              74.04847,
              15.21653
            ],
            [
              74.04622,
              15.21724
            ],
            [
              74.04583,
              15.21722
            ],
            [
              74.04543,
              15.21704
            ],
            [
              74.04504,
              15.21653
            ],
            [
              74.04503,
              15.21605
            ],
            [
              74.04609,
              15.21439
            ],
            [
              74.04684,
              15.2121
            ],
            [
              74.0474,
              15.21086
            ],
            [
              74.04807,
              15.20877
            ],
            [
              74.04812,
              15.20797
            ],
            [
              74.04747,
              15.207
            ],
            [
              74.0472,
              15.20629
            ],
            [
              74.04726,
              15.2039
            ],
            [
              74.04823,
              15.2017
            ],
            [
              74.04818,
              15.20133
            ],
            [
              74.04798,
              15.20104
            ],
            [
              74.04629,
              15.20016
            ],
            [
              74.04502,
              15.19806
            ],
            [
              74.04437,
              15.19605
            ],
            [
              74.04406,
              15.19532
            ],
            [
              74.04216,
              15.19404
            ],
            [
              74.04138,
              15.19356
            ],
            [
              74.03929,
              15.19354
            ],
            [
              74.03684,
              15.19328
            ],
            [
              74.03486,
              15.19261
            ],
            [
              74.03472,
              15.19247
            ],
            [
              74.03467,
              15.19207
            ],
            [
              74.03537,
              15.18701
            ],
            [
              74.03555,
              15.18491
            ],
            [
              74.03686,
              15.18334
            ],
            [
              74.03863,
              15.18023
            ],
            [
              74.03891,
              15.17936
            ],
            [
              74.03917,
              15.17758
            ],
            [
              74.03894,
              15.17601
            ],
            [
              74.03859,
              15.17531
            ],
            [
              74.03805,
              15.17498
            ],
            [
              74.03737,
              15.17474
            ],
            [
              74.03255,
              15.17455
            ],
            [
              74.03043,
              15.17342
            ],
            [
              74.02827,
              15.1727
            ],
            [
              74.02546,
              15.17257
            ],
            [
              74.02457,
              15.17231
            ],
            [
              74.02406,
              15.1716
            ],
            [
              74.02399,
              15.17133
            ],
            [
              74.02466,
              15.16675
            ],
            [
              74.02454,
              15.16632
            ],
            [
              74.02413,
              15.16605
            ],
            [
              74.01957,
              15.16544
            ],
            [
              74.01903,
              15.16529
            ],
            [
              74.01875,
              15.16501
            ],
            [
              74.01851,
              15.16457
            ],
            [
              74.01852,
              15.16389
            ],
            [
              74.01837,
              15.16251
            ],
            [
              74.01786,
              15.16162
            ],
            [
              74.01698,
              15.16092
            ],
            [
              74.01373,
              15.15878
            ],
            [
              74.01333,
              15.15761
            ],
            [
              74.01261,
              15.1565
            ],
            [
              74.01066,
              15.1545
            ],
            [
              74.00957,
              15.15297
            ],
            [
              74.00906,
              15.15266
            ],
            [
              74.00658,
              15.15251
            ],
            [
              74.00592,
              15.15267
            ],
            [
              74.0056,
              15.15299
            ],
            [
              74.00548,
              15.15382
            ],
            [
              74.00478,
              15.15471
            ],
            [
              74.00175,
              15.15562
            ],
            [
              74.00124,
              15.15585
            ],
            [
              74.00083,
              15.15637
            ],
            [
              74.00043,
              15.15661
            ],
            [
              73.9988,
              15.15629
            ],
            [
              73.99611,
              15.15557
            ],
            [
              73.98999,
              15.15435
            ],
            [
              73.98554,
              15.15189
            ],
            [
              73.98406,
              15.15133
            ],
            [
              73.9809,
              15.1498
            ],
            [
              73.98058,
              15.14921
            ],
            [
              73.98019,
              15.14748
            ],
            [
              73.9799,
              15.14722
            ],
            [
              73.97775,
              15.14648
            ],
            [
              73.97594,
              15.14648
            ],
            [
              73.97554,
              15.14635
            ],
            [
              73.97501,
              15.14601
            ],
            [
              73.97387,
              15.14506
            ],
            [
              73.97353,
              15.14491
            ],
            [
              73.97308,
              15.14493
            ],
            [
              73.97202,
              15.14436
            ],
            [
              73.97076,
              15.1431
            ],
            [
              73.96992,
              15.1421
            ],
            [
              73.9695,
              15.14192
            ],
            [
              73.96487,
              15.14174
            ],
            [
              73.96379,
              15.14126
            ],
            [
              73.96088,
              15.13796
            ],
            [
              73.95926,
              15.13717
            ],
            [
              73.95805,
              15.13715
            ],
            [
              73.9569,
              15.13728
            ],
            [
              73.95586,
              15.13808
            ],
            [
              73.95493,
              15.13975
            ],
            [
              73.95322,
              15.14142
            ],
            [
              73.951,
              15.14258
            ],
            [
              73.94968,
              15.14304
            ],
            [
              73.94978,
              15.14227
            ],
            [
              73.94966,
              15.142
            ],
            [
              73.94923,
              15.14182
            ],
            [
              73.94844,
              15.14197
            ],
            [
              73.94665,
              15.14176
            ],
            [
              73.94636185,
              15.14206052
            ],
            [
              73.94968242,
              15.14469109
            ],
            [
              73.88429014,
              15.35462204
            ],
            [
              73.87100733,
              15.37133296
            ],
            [
              73.84171704,
              15.36019235
            ],
            [
              73.80833973,
              15.37725141
            ],
            [
              73.80595564,
              15.39396234
            ],
            [
              73.79131049,
              15.39431048
            ],
            [
              73.78381763,
              15.40893254
            ],
            [
              73.79471634,
              15.41450284
            ],
            [
              73.80731798,
              15.3991845
            ],
            [
              73.81719494,
              15.41067326
            ],
            [
              73.82605014,
              15.40301408
            ],
            [
              73.8403547,
              15.41067326
            ],
            [
              73.84648523,
              15.39814007
            ],
            [
              73.8740726,
              15.39639934
            ],
            [
              73.89212359,
              15.40858439
            ],
            [
              73.93980546,
              15.40858439
            ],
            [
              73.92618207,
              15.42251016
            ]
          ]
        ]
      }
    },
    {
      "type": "Feature",
      "properties": {
        "dt_code": "587",
        "district": "Kushavati",
        "st_code": "30",
        "year": "2025_c",
        "st_nm": "Goa"
      },
      "geometry": {
        "type": "Polygon",
        "coordinates": [
          [
            [
              74.10362675,
              15.42738418
            ],
            [
              74.10975728,
              15.41902872
            ],
            [
              74.12406184,
              15.4378285
            ],
            [
              74.17889599,
              15.43713222
            ],
            [
              74.19967166,
              15.46637633
            ],
            [
              74.25109997,
              15.49144271
            ],
            [
              74.27562207,
              15.44931726
            ],
            [
              74.26881038,
              15.41902872
            ],
            [
              74.27596266,
              15.39152533
            ],
            [
              74.32330395,
              15.36785152
            ],
            [
              74.31717342,
              15.32920751
            ],
            [
              74.33624617,
              15.29474124
            ],
            [
              74.32636921,
              15.28325248
            ],
            [
              74.27630324,
              15.28325248
            ],
            [
              74.25144055,
              15.25853424
            ],
            [
              74.25961459,
              15.24112703
            ],
            [
              74.30150652,
              15.22441611
            ],
            [
              74.31717342,
              15.18646839
            ],
            [
              74.28515845,
              15.14886882
            ],
            [
              74.28481786,
              15.1140544
            ],
            [
              74.27255681,
              15.09769162
            ],
            [
              74.29639775,
              15.04129226
            ],
            [
              74.26778862,
              15.00160382
            ],
            [
              74.25348406,
              14.99777423
            ],
            [
              74.26438278,
              14.9786263
            ],
            [
              74.25246231,
              14.95878208
            ],
            [
              74.23645482,
              14.96644125
            ],
            [
              74.20137459,
              14.92536024
            ],
            [
              74.17923658,
              14.95669322
            ],
            [
              74.16493202,
              14.95808579
            ],
            [
              74.16356968,
              14.95808579
            ],
            [
              74.15437389,
              14.94311559
            ],
            [
              74.16186675,
              14.91178261
            ],
            [
              74.12406184,
              14.92501209
            ],
            [
              74.08557576,
              14.900642
            ],
            [
              74.08080757,
              14.91039004
            ],
            [
              74.04402441,
              14.91735292
            ],
            [
              74.04981435,
              14.95913023
            ],
            [
              74.03482862,
              14.99707794
            ],
            [
              74.02120523,
              15.0117
            ],
            [
              73.98884967,
              15.02040361
            ],
            [
              73.98203798,
              15.05486988
            ],
            [
              73.97182043,
              15.05243287
            ],
            [
              73.96637108,
              15.06670678
            ],
            [
              73.9122181,
              15.08585472
            ],
            [
              73.92686324,
              15.09699533
            ],
            [
              73.91800804,
              15.10813594
            ],
            [
              73.93537786,
              15.11231368
            ],
            [
              73.93605903,
              15.13389862
            ],
            [
              73.94968242,
              15.14469109
            ],
            [
              73.94636185,
              15.14206052
            ],
            [
              73.94655,
              15.14181
            ],
            [
              73.94689,
              15.14177
            ],
            [
              73.94732,
              15.14188
            ],
            [
              73.94844,
              15.14197
            ],
            [
              73.94923,
              15.14182
            ],
            [
              73.94966,
              15.142
            ],
            [
              73.94978,
              15.14227
            ],
            [
              73.94968,
              15.14304
            ],
            [
              73.951,
              15.14258
            ],
            [
              73.95322,
              15.14142
            ],
            [
              73.95493,
              15.13975
            ],
            [
              73.95586,
              15.13808
            ],
            [
              73.9569,
              15.13728
            ],
            [
              73.95805,
              15.13715
            ],
            [
              73.95926,
              15.13717
            ],
            [
              73.96088,
              15.13796
            ],
            [
              73.96379,
              15.14126
            ],
            [
              73.96487,
              15.14174
            ],
            [
              73.9695,
              15.14192
            ],
            [
              73.96992,
              15.1421
            ],
            [
              73.97076,
              15.1431
            ],
            [
              73.97202,
              15.14436
            ],
            [
              73.97308,
              15.14493
            ],
            [
              73.97353,
              15.14491
            ],
            [
              73.97387,
              15.14506
            ],
            [
              73.97501,
              15.14601
            ],
            [
              73.97554,
              15.14635
            ],
            [
              73.97594,
              15.14648
            ],
            [
              73.97775,
              15.14648
            ],
            [
              73.9799,
              15.14722
            ],
            [
              73.98019,
              15.14748
            ],
            [
              73.98058,
              15.14921
            ],
            [
              73.9809,
              15.1498
            ],
            [
              73.98406,
              15.15133
            ],
            [
              73.98554,
              15.15189
            ],
            [
              73.98999,
              15.15435
            ],
            [
              73.99611,
              15.15557
            ],
            [
              73.9988,
              15.15629
            ],
            [
              74.00043,
              15.15661
            ],
            [
              74.00083,
              15.15637
            ],
            [
              74.00124,
              15.15585
            ],
            [
              74.00175,
              15.15562
            ],
            [
              74.00478,
              15.15471
            ],
            [
              74.00548,
              15.15382
            ],
            [
              74.0056,
              15.15299
            ],
            [
              74.00592,
              15.15267
            ],
            [
              74.00658,
              15.15251
            ],
            [
              74.00906,
              15.15266
            ],
            [
              74.00957,
              15.15297
            ],
            [
              74.01066,
              15.1545
            ],
            [
              74.01261,
              15.1565
            ],
            [
              74.01333,
              15.15761
            ],
            [
              74.01373,
              15.15878
            ],
            [
              74.01698,
              15.16092
            ],
            [
              74.01786,
              15.16162
            ],
            [
              74.01837,
              15.16251
            ],
            [
              74.01852,
              15.16389
            ],
            [
              74.01851,
              15.16457
            ],
            [
              74.01875,
              15.16501
            ],
            [
              74.01903,
              15.16529
            ],
            [
              74.01957,
              15.16544
            ],
            [
              74.02413,
              15.16605
            ],
            [
              74.02454,
              15.16632
            ],
            [
              74.02466,
              15.16675
            ],
            [
              74.02399,
              15.17133
            ],
            [
              74.02406,
              15.1716
            ],
            [
              74.02457,
              15.17231
            ],
            [
              74.02546,
              15.17257
            ],
            [
              74.02827,
              15.1727
            ],
            [
              74.03043,
              15.17342
            ],
            [
              74.03255,
              15.17455
            ],
            [
              74.03737,
              15.17474
            ],
            [
              74.03805,
              15.17498
            ],
            [
              74.03859,
              15.17531
            ],
            [
              74.03894,
              15.17601
            ],
            [
              74.03917,
              15.17758
            ],
            [
              74.03891,
              15.17936
            ],
            [
              74.03863,
              15.18023
            ],
            [
              74.03686,
              15.18334
            ],
            [
              74.03555,
              15.18491
            ],
            [
              74.03537,
              15.18701
            ],
            [
              74.03467,
              15.19207
            ],
            [
              74.03472,
              15.19247
            ],
            [
              74.03486,
              15.19261
            ],
            [
              74.03684,
              15.19328
            ],
            [
              74.03929,
              15.19354
            ],
            [
              74.04138,
              15.19356
            ],
            [
              74.04216,
              15.19404
            ],
            [
              74.04406,
              15.19532
            ],
            [
              74.04437,
              15.19605
            ],
            [
              74.04502,
              15.19806
            ],
            [
              74.04629,
              15.20016
            ],
            [
              74.04798,
              15.20104
            ],
            [
              74.04818,
              15.20133
            ],
            [
              74.04823,
              15.2017
            ],
            [
              74.04726,
              15.2039
            ],
            [
              74.0472,
              15.20629
            ],
            [
              74.04747,
              15.207
            ],
            [
              74.04812,
              15.20797
            ],
            [
              74.04807,
              15.20877
            ],
            [
              74.0474,
              15.21086
            ],
            [
              74.04684,
              15.2121
            ],
            [
              74.04609,
              15.21439
            ],
            [
              74.04503,
              15.21605
            ],
            [
              74.04504,
              15.21653
            ],
            [
              74.04543,
              15.21704
            ],
            [
              74.04583,
              15.21722
            ],
            [
              74.04622,
              15.21724
            ],
            [
              74.04847,
              15.21653
            ],
            [
              74.05141,
              15.21621
            ],
            [
              74.05342,
              15.2165
            ],
            [
              74.05454,
              15.21711
            ],
            [
              74.05536,
              15.21706
            ],
            [
              74.05592,
              15.21735
            ],
            [
              74.06,
              15.22073
            ],
            [
              74.06125,
              15.22162
            ],
            [
              74.0624,
              15.22212
            ],
            [
              74.06297,
              15.22287
            ],
            [
              74.06329,
              15.22451
            ],
            [
              74.06282,
              15.22571
            ],
            [
              74.06189,
              15.22736
            ],
            [
              74.0607,
              15.2283
            ],
            [
              74.05987,
              15.22849
            ],
            [
              74.05905,
              15.22848
            ],
            [
              74.05854,
              15.22827
            ],
            [
              74.05792,
              15.22756
            ],
            [
              74.05679,
              15.22652
            ],
            [
              74.05603,
              15.22617
            ],
            [
              74.05582,
              15.2262
            ],
            [
              74.05479,
              15.22673
            ],
            [
              74.05286,
              15.22807
            ],
            [
              74.05175,
              15.22858
            ],
            [
              74.04973,
              15.2293
            ],
            [
              74.04725,
              15.23046
            ],
            [
              74.04581,
              15.23131
            ],
            [
              74.04563,
              15.23161
            ],
            [
              74.04556,
              15.2324
            ],
            [
              74.04562,
              15.23345
            ],
            [
              74.04588,
              15.23488
            ],
            [
              74.04646,
              15.23704
            ],
            [
              74.04668,
              15.23871
            ],
            [
              74.04668,
              15.23989
            ],
            [
              74.04646,
              15.24162
            ],
            [
              74.04615,
              15.24265
            ],
            [
              74.04561,
              15.24554
            ],
            [
              74.04541,
              15.24584
            ],
            [
              74.04413,
              15.24669
            ],
            [
              74.04371,
              15.24731
            ],
            [
              74.0436,
              15.24763
            ],
            [
              74.04365,
              15.24794
            ],
            [
              74.0441,
              15.24839
            ],
            [
              74.04577,
              15.2486
            ],
            [
              74.04652,
              15.24896
            ],
            [
              74.04753,
              15.24965
            ],
            [
              74.05106,
              15.25416
            ],
            [
              74.05204,
              15.25482
            ],
            [
              74.05261,
              15.2549
            ],
            [
              74.05376,
              15.25489
            ],
            [
              74.05525,
              15.25436
            ],
            [
              74.05619,
              15.25417
            ],
            [
              74.05704,
              15.25429
            ],
            [
              74.05738,
              15.25451
            ],
            [
              74.05754,
              15.25471
            ],
            [
              74.0576,
              15.255
            ],
            [
              74.05743,
              15.25543
            ],
            [
              74.05733,
              15.25609
            ],
            [
              74.05747,
              15.25747
            ],
            [
              74.05791,
              15.25988
            ],
            [
              74.05849,
              15.26096
            ],
            [
              74.05919,
              15.2616
            ],
            [
              74.05973,
              15.26165
            ],
            [
              74.06158,
              15.26084
            ],
            [
              74.06219,
              15.26076
            ],
            [
              74.06256,
              15.26089
            ],
            [
              74.06286,
              15.26111
            ],
            [
              74.06327,
              15.26168
            ],
            [
              74.06344,
              15.26228
            ],
            [
              74.06345,
              15.26289
            ],
            [
              74.06272,
              15.26486
            ],
            [
              74.0619,
              15.26669
            ],
            [
              74.06175,
              15.26734
            ],
            [
              74.06192,
              15.26813
            ],
            [
              74.06226,
              15.26836
            ],
            [
              74.06381,
              15.268
            ],
            [
              74.0657,
              15.26784
            ],
            [
              74.06777,
              15.26791
            ],
            [
              74.06902,
              15.2684
            ],
            [
              74.06949,
              15.26893
            ],
            [
              74.06998,
              15.27024
            ],
            [
              74.07059,
              15.27249
            ],
            [
              74.07127,
              15.27338
            ],
            [
              74.07314,
              15.27479
            ],
            [
              74.07389,
              15.2765
            ],
            [
              74.07471,
              15.27529
            ],
            [
              74.07561,
              15.27461
            ],
            [
              74.07632,
              15.27454
            ],
            [
              74.07711,
              15.27477
            ],
            [
              74.07819,
              15.27547
            ],
            [
              74.08055,
              15.27722
            ],
            [
              74.08138,
              15.27756
            ],
            [
              74.08228,
              15.27778
            ],
            [
              74.08315,
              15.27784
            ],
            [
              74.08395,
              15.27736
            ],
            [
              74.08599,
              15.27483
            ],
            [
              74.08751,
              15.27353
            ],
            [
              74.08842,
              15.27254
            ],
            [
              74.08928,
              15.27146
            ],
            [
              74.09007,
              15.26987
            ],
            [
              74.09101,
              15.26851
            ],
            [
              74.09127,
              15.26838
            ],
            [
              74.09164,
              15.26842
            ],
            [
              74.09594,
              15.26942
            ],
            [
              74.09838,
              15.26979
            ],
            [
              74.09868,
              15.27102
            ],
            [
              74.09937,
              15.27176
            ],
            [
              74.10004,
              15.2722
            ],
            [
              74.10156,
              15.27411
            ],
            [
              74.10275,
              15.27641
            ],
            [
              74.103,
              15.2775
            ],
            [
              74.10504,
              15.28009
            ],
            [
              74.10524,
              15.28183
            ],
            [
              74.1058,
              15.28345
            ],
            [
              74.10581,
              15.28372
            ],
            [
              74.10573,
              15.28394
            ],
            [
              74.10545,
              15.28428
            ],
            [
              74.10485,
              15.2848
            ],
            [
              74.10434,
              15.28544
            ],
            [
              74.10427,
              15.28617
            ],
            [
              74.10468,
              15.28694
            ],
            [
              74.10469,
              15.28717
            ],
            [
              74.10426,
              15.28819
            ],
            [
              74.10214,
              15.28956
            ],
            [
              74.10191,
              15.28978
            ],
            [
              74.10101,
              15.29154
            ],
            [
              74.09758,
              15.29449
            ],
            [
              74.0958,
              15.29551
            ],
            [
              74.09392,
              15.29619
            ],
            [
              74.09209,
              15.29706
            ],
            [
              74.09106,
              15.29832
            ],
            [
              74.09054,
              15.29985
            ],
            [
              74.09013,
              15.30028
            ],
            [
              74.08852,
              15.30059
            ],
            [
              74.0883,
              15.30091
            ],
            [
              74.08825,
              15.30149
            ],
            [
              74.08836,
              15.30195
            ],
            [
              74.08882,
              15.3031
            ],
            [
              74.08906,
              15.30344
            ],
            [
              74.08933,
              15.30357
            ],
            [
              74.09085,
              15.30387
            ],
            [
              74.09147,
              15.30415
            ],
            [
              74.09158,
              15.30433
            ],
            [
              74.09152,
              15.3048
            ],
            [
              74.08775,
              15.31063
            ],
            [
              74.08723,
              15.31183
            ],
            [
              74.08717,
              15.31241
            ],
            [
              74.08742,
              15.31347
            ],
            [
              74.08749,
              15.31594
            ],
            [
              74.08779,
              15.31678
            ],
            [
              74.08778,
              15.31721
            ],
            [
              74.08669,
              15.31832
            ],
            [
              74.08591,
              15.31888
            ],
            [
              74.08489,
              15.32041
            ],
            [
              74.08426,
              15.32167
            ],
            [
              74.08342,
              15.32374
            ],
            [
              74.08356,
              15.32512
            ],
            [
              74.08405,
              15.32634
            ],
            [
              74.08564,
              15.32818
            ],
            [
              74.08703,
              15.32872
            ],
            [
              74.08942,
              15.33132
            ],
            [
              74.09097,
              15.33201
            ],
            [
              74.09223,
              15.33318
            ],
            [
              74.09423,
              15.33618
            ],
            [
              74.09546,
              15.33733
            ],
            [
              74.09579,
              15.33837
            ],
            [
              74.0958,
              15.33915
            ],
            [
              74.0962,
              15.33989
            ],
            [
              74.09666,
              15.34121
            ],
            [
              74.09679,
              15.34378
            ],
            [
              74.09708,
              15.34488
            ],
            [
              74.09753,
              15.34549
            ],
            [
              74.09836,
              15.34617
            ],
            [
              74.09891,
              15.34704
            ],
            [
              74.09949,
              15.34737
            ],
            [
              74.10206,
              15.34739
            ],
            [
              74.10338,
              15.34722
            ],
            [
              74.10357,
              15.34729
            ],
            [
              74.10371,
              15.3476
            ],
            [
              74.10376,
              15.34811
            ],
            [
              74.10356,
              15.3487
            ],
            [
              74.10308,
              15.34942
            ],
            [
              74.10234,
              15.34983
            ],
            [
              74.10097,
              15.35027
            ],
            [
              74.09972,
              15.35039
            ],
            [
              74.09927,
              15.35095
            ],
            [
              74.09924,
              15.35401
            ],
            [
              74.09929,
              15.35453
            ],
            [
              74.09941,
              15.35486
            ],
            [
              74.09965,
              15.35508
            ],
            [
              74.10022,
              15.35508
            ],
            [
              74.10065,
              15.35481
            ],
            [
              74.10202,
              15.3543
            ],
            [
              74.10229,
              15.35434
            ],
            [
              74.10258,
              15.35458
            ],
            [
              74.10229,
              15.35629
            ],
            [
              74.10156,
              15.35818
            ],
            [
              74.10157,
              15.36051
            ],
            [
              74.10202,
              15.36177
            ],
            [
              74.10232,
              15.36214
            ],
            [
              74.10307,
              15.36273
            ],
            [
              74.10407,
              15.36305
            ],
            [
              74.10422,
              15.36326
            ],
            [
              74.10442,
              15.36378
            ],
            [
              74.10459,
              15.36478
            ],
            [
              74.10443,
              15.36516
            ],
            [
              74.10413,
              15.36556
            ],
            [
              74.10355,
              15.36566
            ],
            [
              74.10212,
              15.3656
            ],
            [
              74.10181,
              15.36602
            ],
            [
              74.10172,
              15.36669
            ],
            [
              74.10181,
              15.36739
            ],
            [
              74.10221,
              15.36862
            ],
            [
              74.1022,
              15.3691
            ],
            [
              74.10205,
              15.36957
            ],
            [
              74.10126,
              15.37068
            ],
            [
              74.10104,
              15.37115
            ],
            [
              74.10081,
              15.37249
            ],
            [
              74.10083,
              15.3728
            ],
            [
              74.10046,
              15.3736
            ],
            [
              74.09978,
              15.37402
            ],
            [
              74.09909,
              15.37393
            ],
            [
              74.09842,
              15.37355
            ],
            [
              74.09779,
              15.37356
            ],
            [
              74.09752,
              15.37413
            ],
            [
              74.09702,
              15.37576
            ],
            [
              74.09665,
              15.37618
            ],
            [
              74.09637,
              15.37629
            ],
            [
              74.09554,
              15.37597
            ],
            [
              74.09447,
              15.37466
            ],
            [
              74.09402,
              15.37445
            ],
            [
              74.0938,
              15.37445
            ],
            [
              74.09352,
              15.37469
            ],
            [
              74.09322,
              15.37541
            ],
            [
              74.09319,
              15.37597
            ],
            [
              74.09325,
              15.37614
            ],
            [
              74.09396,
              15.37667
            ],
            [
              74.09491,
              15.379
            ],
            [
              74.09525,
              15.3792
            ],
            [
              74.09583,
              15.37906
            ],
            [
              74.09641,
              15.37837
            ],
            [
              74.09704,
              15.3779
            ],
            [
              74.09742,
              15.37777
            ],
            [
              74.09814,
              15.37781
            ],
            [
              74.09836,
              15.37794
            ],
            [
              74.09863,
              15.37817
            ],
            [
              74.09871,
              15.37847
            ],
            [
              74.09869,
              15.37879
            ],
            [
              74.09818,
              15.37957
            ],
            [
              74.09679,
              15.38136
            ],
            [
              74.09645,
              15.38261
            ],
            [
              74.09584,
              15.38312
            ],
            [
              74.09258,
              15.38398
            ],
            [
              74.09218,
              15.38401
            ],
            [
              74.09157,
              15.3839
            ],
            [
              74.09146,
              15.38375
            ],
            [
              74.09145,
              15.38347
            ],
            [
              74.09248,
              15.38188
            ],
            [
              74.09241,
              15.38136
            ],
            [
              74.09229,
              15.38114
            ],
            [
              74.09198,
              15.38106
            ],
            [
              74.09119,
              15.38118
            ],
            [
              74.09098,
              15.38138
            ],
            [
              74.09048,
              15.3822
            ],
            [
              74.09008,
              15.38314
            ],
            [
              74.08981,
              15.3843
            ],
            [
              74.08949,
              15.38655
            ],
            [
              74.08944,
              15.38822
            ],
            [
              74.08916,
              15.38987
            ],
            [
              74.08862,
              15.39207
            ],
            [
              74.08817,
              15.39232
            ],
            [
              74.08789,
              15.39234
            ],
            [
              74.08742,
              15.39216
            ],
            [
              74.08645,
              15.39143
            ],
            [
              74.08566,
              15.39069
            ],
            [
              74.08505,
              15.39056
            ],
            [
              74.08476,
              15.39062
            ],
            [
              74.08453,
              15.39076
            ],
            [
              74.08391,
              15.39188
            ],
            [
              74.08192,
              15.3935
            ],
            [
              74.08127,
              15.39424
            ],
            [
              74.0812,
              15.39455
            ],
            [
              74.08131,
              15.39524
            ],
            [
              74.08131,
              15.39591
            ],
            [
              74.08073,
              15.39676
            ],
            [
              74.0805,
              15.39674
            ],
            [
              74.08002,
              15.39636
            ],
            [
              74.07836,
              15.39312
            ],
            [
              74.07806,
              15.3926
            ],
            [
              74.07792,
              15.39249
            ],
            [
              74.07766,
              15.39231
            ],
            [
              74.07732,
              15.39226
            ],
            [
              74.07614,
              15.39233
            ],
            [
              74.07597,
              15.39241
            ],
            [
              74.07559,
              15.39286
            ],
            [
              74.07511,
              15.39366
            ],
            [
              74.07508,
              15.3947
            ],
            [
              74.07523,
              15.39581
            ],
            [
              74.07623,
              15.39833
            ],
            [
              74.07702,
              15.39957
            ],
            [
              74.0771,
              15.39982
            ],
            [
              74.07706,
              15.40016
            ],
            [
              74.0768,
              15.40082
            ],
            [
              74.07655,
              15.40102
            ],
            [
              74.07506,
              15.40131
            ],
            [
              74.07451,
              15.40163
            ],
            [
              74.07391,
              15.40229
            ],
            [
              74.07322,
              15.40399
            ],
            [
              74.07272,
              15.40449
            ],
            [
              74.07247,
              15.4053
            ],
            [
              74.07245,
              15.40622
            ],
            [
              74.07257,
              15.40651
            ],
            [
              74.07355,
              15.40797
            ],
            [
              74.07445,
              15.40916
            ],
            [
              74.07462,
              15.40945
            ],
            [
              74.07468,
              15.41001
            ],
            [
              74.07463,
              15.41023
            ],
            [
              74.07435,
              15.41066
            ],
            [
              74.07333,
              15.41153
            ],
            [
              74.07211,
              15.41243
            ],
            [
              74.07217,
              15.41255
            ],
            [
              74.07402,
              15.41374
            ],
            [
              74.07439,
              15.4138
            ],
            [
              74.0763,
              15.41455
            ],
            [
              74.07819,
              15.41543
            ],
            [
              74.0817,
              15.41685
            ],
            [
              74.083,
              15.41765
            ],
            [
              74.08368961,
              15.41828259
            ],
            [
              74.10362675,
              15.42738418
            ]
          ]
        ]
      }
    }
  ]
}